0 SL-6 R/B(2)
1 13298U 82064D   13281.55245995  .00000419  00000-0  00000+0 0  9197
2 13298 067.6748 036.2421 5800738 111.5391 319.4927 02.03255654155562
0 SL-6 R/B(2)
1 13298U 82064D   13283.51805822  .00000000  00000-0  10000-3 0  9209
2 13298 067.6809 036.1206 5802239 111.4820 317.7767 02.03257689155602
0 SL-6 R/B(2)
1 13298U 82064D   13283.57732589  .00000615  00000-0  00000+0 0  9201
2 13298 067.6786 036.1114 5800649 111.4897 001.1416 02.03255938155601
0 SL-6 R/B(2)
1 13298U 82064D   13285.97417073  .00000766  00000-0  00000+0 0  9213
2 13298 067.6828 035.9571 5800521 111.4305 314.9881 02.03257648155640
0 SL-6 R/B(2)
1 13298U 82064D   13293.13677927  .00000503  00000-0  00000+0 0  9226
2 13298 067.6942 035.4972 5800168 111.2519 156.2535 02.03268387155790
